OBJECT_NAME,OBJECT_ID,EPOCH,MEAN_MOTION,ECCENTRICITY,INCLINATION,RA_OF_ASC_NODE,ARG_OF_PERICENTER,MEAN_ANOMALY,EPHEMERIS_TYPE,CLASSIFICATION_TYPE,NORAD_CAT_ID,ELEMENT_SET_NO,REV_AT_EPOCH,BSTAR,MEAN_MOTION_DOT,MEAN_MOTION_DDOT
SL-16 R/B,1994-077B,2026-07-14T21:23:50.010720,14.15574286,.00040791,70.9822,84.8784,303.5176,56.5557,0,U,23405,999,63423,-.24914224E-4,-.97E-6,0
ARIANE 40+ R/B,1995-021B,2026-07-14T19:03:40.931136,14.39847424,.00078916,98.4401,265.4688,117.5067,8.0673,0,U,23561,999,63753,.50947838E-4,.117E-5,0
SL-16 R/B,1995-058B,2026-07-14T14:55:40.095840,14.15508580,.00146101,71.0210,273.7590,283.5085,76.4410,0,U,23705,999,58581,.97513681E-4,.143E-5,0
SL-16 R/B,1996-051B,2026-07-14T15:37:19.221024,14.12456256,.00177604,70.7647,266.5289,298.7889,61.1447,0,U,24298,999,53957,.1111262E-3,.156E-5,0
ORBVIEW 2 (SEASTAR),1997-037A,2026-07-14T21:35:18.693024,14.35566697,.00031057,98.8713,3.6902,61.6164,298.5333,0,U,24883,999,52672,.48113264E-4,.92E-6,0
SL-16 R/B,1998-043G,2026-07-14T20:47:50.030592,14.26072659,.00100509,98.8379,150.2662,12.4106,347.7319,0,U,25400,999,45711,.172844E-4,-.4E-7,0
SL-16 R/B,1998-045B,2026-07-14T15:23:25.832544,14.16205496,.00082061,71.0111,274.5935,207.4322,152.6369,0,U,25407,999,44507,-.83583046E-4,-.213E-5,0
ISS (ZARYA),1998-067A,2026-07-15T02:54:37.163808,15.49005161,.0007251,51.6305,161.8506,303.7745,56.2552,0,U,25544,999,57608,.55898E-4,.263E-4,0
CZ-4B R/B,1999-025C,2026-07-14T17:34:05.021184,14.18287646,.00366597,98.6472,236.8754,341.0970,130.5114,0,U,25732,999,40617,.30053721E-4,.19E-6,0
OKEAN-O,1999-039A,2026-07-14T17:17:00.391488,14.80497069,.0000903,97.9302,254.1999,85.5938,274.5378,0,U,25860,999,45318,.41627704E-4,.267E-5,0
SL-16 R/B,1999-039B,2026-07-14T17:11:35.111040,14.81870483,.00142745,97.9824,254.4989,199.9927,160.0728,0,U,25861,999,45567,.34052345E-4,.216E-5,0
DELTA 2 R/B,1999-041E,2026-07-14T06:49:52.750848,14.12082542,.05013648,51.7612,155.5352,2.0695,358.2160,0,U,25876,999,38091,.25316376E-3,.1336E-4,0
HELIOS 1B,1999-064A,2026-07-14T17:57:42.159168,14.88074608,.00019613,98.1585,101.6834,54.2215,305.9183,0,U,25977,999,70415,.78572208E-4,.664E-5,0
TERRA,1999-068A,2026-07-14T21:36:47.054304,14.61123566,.0003399,97.9442,244.3459,123.2466,355.1489,0,U,25994,999,41365,.47980775E-4,.192E-5,0
SL-16 R/B,2000-006B,2026-07-14T09:46:01.090848,14.15838156,.00171677,71.0002,191.3903,341.0591,18.9892,0,U,26070,999,36649,-.62755376E-4,-.171E-5,0
TITAN 4B R/B,2000-047B,2026-07-14T21:00:52.272864,15.10332215,.0045843,67.9873,42.6272,259.0683,100.5307,0,U,26474,999,41211,.81898927E-4,.1236E-4,0
ENVISAT,2002-009A,2026-07-14T20:25:40.947168,14.39070704,.00013303,98.3846,146.5548,83.5093,331.0582,0,U,27386,999,27746,.1937711E-4,.17E-6,0
IDEFIX & ARIANE 42P R/B,2002-021B,2026-07-14T19:35:59.892288,14.31093652,.00118654,98.5942,133.0011,167.5595,192.5883,0,U,27422,999,26220,.48864167E-4,.85E-6,0
AQUA,2002-022A,2026-07-14T12:07:11.762400,14.62196472,.0000927,98.4295,165.3370,111.8770,0.7592,0,U,27424,999,28726,.80863616E-4,.358E-5,0
CZ-4B R/B,2002-024C,2026-07-14T18:21:04.482144,14.14568199,.00504925,98.8687,248.4036,23.2026,85.5401,0,U,27432,999,24720,.26782416E-4,.8E-7,0
MIDORI II (ADEOS-II),2002-056A,2026-07-14T20:36:19.043136,14.29362945,.00014926,98.7894,155.3561,41.2919,318.8375,0,U,27597,999,22846,.54331714E-4,.93E-6,0
H-2A R/B,2002-056E,2026-07-14T22:14:14.841888,14.33833815,.00708713,98.3328,151.5922,141.7210,286.0147,0,U,27601,999,23234,.55126129E-4,.116E-5,0
CZ-4B R/B,2003-049C,2026-07-14T20:58:50.869632,14.55115964,.00476207,98.6909,195.8244,202.2447,157.6683,0,U,28059,999,20509,.42210879E-4,.133E-5,0
CZ-2C R/B,2004-012C,2026-07-14T19:16:15.680064,15.85123511,.00112036,97.7048,274.8063,191.8048,168.2961,0,U,28222,999,22426,.43666651E-3,.103803E-2,0
SL-16 R/B,2004-021B,2026-07-14T19:25:53.893056,14.14616433,.0006324,71.0028,325.7174,225.4145,134.6462,0,U,28353,999,14081,.17067278E-4,-.15E-6,0
CZ-4B R/B,2004-035C,2026-07-14T15:38:58.611264,15.30987155,.00292023,97.3356,228.4210,234.6367,125.2145,0,U,28415,999,19932,.13800724E-3,.4106E-4,0
CZ-2C R/B,2004-046B,2026-07-14T17:56:24.368928,14.27033036,.01401011,98.1917,102.8022,138.7113,222.4765,0,U,28480,999,12662,.36932229E-4,.6E-6,0
ARIANE 5 R/B,2004-049H,2026-07-14T22:47:25.631808,14.85478793,.00826515,98.2741,9.2793,299.0967,60.1989,0,U,28499,999,16468,.31782575E-4,.225E-5,0
CZ-2D R/B,2005-024B,2026-07-14T14:33:21.536064,15.72696978,.0002298,97.3471,216.4662,192.6193,167.5013,0,U,28738,999,15964,.33563E-3,.45115E-3,0
ALOS (DAICHI),2006-002A,2026-07-14T20:39:34.831584,14.70101363,.00008056,98.1339,151.3450,98.0057,262.1241,0,U,28931,999,9216,.85198024E-4,.462E-5,0
